{
  "type": "FeatureCollection",
  "features": [
    {
      "type": "Feature",
      "properties": {
        "norad_id": 40069,
        "name": "METEOR-M 2",
        "group": "weather",
        "lat": 75.43344636284466,
        "lon": 175.71424454260506,
        "alt_km": 815.2514258462843,
        "timestamp": "2025-12-08T21:31:04.318208+00:00",
        "meta_object_name": "METEOR-M 2",
        "meta_object_id": "2014-037A",
        "meta_epoch": "2025-12-08T14:16:55.925472",
        "meta_mean_motion": 14.21384246,
        "meta_eccentricity": 0.00048742,
        "meta_inclination": 98.4899,
        "meta_ra_of_asc_node": 320.3387,
        "meta_arg_of_pericenter": 222.7698,
        "meta_mean_anomaly": 137.3102,
        "meta_ephemeris_type": 0,
        "meta_classification_type": "U",
        "meta_norad_cat_id": 40069,
        "meta_element_set_no": 999,
        "meta_rev_at_epoch": 59224,
        "meta_bstar": 0.00016367118,
        "meta_mean_motion_dot": 3.15e-06,
        "meta_mean_motion_ddot": 0,
        "tle_line1": "1 40069U 14037A   25342.59509173  .00000315  00000+0  16367-3 0  9993",
        "tle_line2": "2 40069  98.4899 320.3387 0004874 222.7698 137.3102 14.21384246592247"
      },
      "geometry": {
        "type": "Point",
        "coordinates": [
          175.71424454260506,
          75.43344636284466
        ]
      }
    },
    {
      "type": "Feature",
      "properties": {
        "norad_id": 40267,
        "name": "HIMAWARI-8",
        "group": "weather",
        "lat": -0.022040328702033953,
        "lon": -178.69078087396446,
        "alt_km": 35788.671072932244,
        "timestamp": "2025-12-08T21:31:04.318221+00:00",
        "meta_object_name": "HIMAWARI-8",
        "meta_object_id": "2014-060A",
        "meta_epoch": "2025-12-08T14:16:25.895424",
        "meta_mean_motion": 1.00270585,
        "meta_eccentricity": 0.0001276,
        "meta_inclination": 0.0332,
        "meta_ra_of_asc_node": 224.0162,
        "meta_arg_of_pericenter": 71.8182,
        "meta_mean_anomaly": 136.5361,
        "meta_ephemeris_type": 0,
        "meta_classification_type": "U",
        "meta_norad_cat_id": 40267,
        "meta_element_set_no": 999,
        "meta_rev_at_epoch": 4084,
        "meta_bstar": 0,
        "meta_mean_motion_dot": -2.73e-06,
        "meta_mean_motion_ddot": 0,
        "tle_line1": "1 40267U 14060A   25342.59474416 -.00000273  00000+0  00000+0 0  9997",
        "tle_line2": "2 40267   0.0332 224.0162 0001276  71.8182 136.5361  1.00270585 40848"
      },
      "geometry": {
        "type": "Point",
        "coordinates": [
          -178.69078087396446,
          -0.022040328702033953
        ]
      }
    },
    {
      "type": "Feature",
      "properties": {
        "norad_id": 40367,
        "name": "FENGYUN 2G",
        "group": "weather",
        "lat": 4.69016020587264,
        "lon": 140.17308300432833,
        "alt_km": 35796.078041235894,
        "timestamp": "2025-12-08T21:31:04.318233+00:00",
        "meta_object_name": "FENGYUN 2G",
        "meta_object_id": "2014-090A",
        "meta_epoch": "2025-12-07T19:14:37.154688",
        "meta_mean_motion": 1.00265807,
        "meta_eccentricity": 0.00031202,
        "meta_inclination": 5.1554,
        "meta_ra_of_asc_node": 75.1544,
        "meta_arg_of_pericenter": 196.9461,
        "meta_mean_anomaly": 193.0185,
        "meta_ephemeris_type": 0,
        "meta_classification_type": "U",
        "meta_norad_cat_id": 40367,
        "meta_element_set_no": 999,
        "meta_rev_at_epoch": 4008,
        "meta_bstar": 0,
        "meta_mean_motion_dot": -3e-06,
        "meta_mean_motion_ddot": 0,
        "tle_line1": "1 40367U 14090A   25341.80181892 -.00000300  00000+0  00000+0 0  9998",
        "tle_line2": "2 40367   5.1554  75.1544 0003120 196.9461 193.0185  1.00265807 40088"
      },
      "geometry": {
        "type": "Point",
        "coordinates": [
          140.17308300432833,
          4.69016020587264
        ]
      }
    },
    {
      "type": "Feature",
      "properties": {
        "norad_id": 40732,
        "name": "METEOSAT-11 (MSG-4)",
        "group": "weather",
        "lat": -1.0014596665943243,
        "lon": 50.03346171899329,
        "alt_km": 35791.023470244385,
        "timestamp": "2025-12-08T21:31:04.318252+00:00",
        "meta_object_name": "METEOSAT-11 (MSG-4)",
        "meta_object_id": "2015-034A",
        "meta_epoch": "2025-12-08T06:47:59.170272",
        "meta_mean_motion": 1.00266103,
        "meta_eccentricity": 9.754e-05,
        "meta_inclination": 2.7242,
        "meta_ra_of_asc_node": 72.0144,
        "meta_arg_of_pericenter": 120.6202,
        "meta_mean_anomaly": 356.0214,
        "meta_ephemeris_type": 0,
        "meta_classification_type": "U",
        "meta_norad_cat_id": 40732,
        "meta_element_set_no": 999,
        "meta_rev_at_epoch": 530,
        "meta_bstar": 0,
        "meta_mean_motion_dot": 6.3e-07,
        "meta_mean_motion_ddot": 0,
        "tle_line1": "1 40732U 15034A   25342.28332373  .00000063  00000+0  00000+0 0  9993",
        "tle_line2": "2 40732   2.7242  72.0144 0000975 120.6202 356.0214  1.00266103  5305"
      },
      "geometry": {
        "type": "Point",
        "coordinates": [
          50.03346171899329,
          -1.0014596665943243
        ]
      }
    },
    {
      "type": "Feature",
      "properties": {
        "norad_id": 41105,
        "name": "ELEKTRO-L 2",
        "group": "weather",
        "lat": -4.506762015743513,
        "lon": 26.369811879923294,
        "alt_km": 35792.57479876393,
        "timestamp": "2025-12-08T21:31:04.318264+00:00",
        "meta_object_name": "ELEKTRO-L 2",
        "meta_object_id": "2015-074A",
        "meta_epoch": "2025-12-08T01:32:59.339616",
        "meta_mean_motion": 1.00272095,
        "meta_eccentricity": 0.00038959,
        "meta_inclination": 6.2137,
        "meta_ra_of_asc_node": 72.8831,
        "meta_arg_of_pericenter": 202.1976,
        "meta_mean_anomaly": 170.7351,
        "meta_ephemeris_type": 0,
        "meta_classification_type": "U",
        "meta_norad_cat_id": 41105,
        "meta_element_set_no": 999,
        "meta_rev_at_epoch": 3659,
        "meta_bstar": 0,
        "meta_mean_motion_dot": -1.16e-06,
        "meta_mean_motion_ddot": 0,
        "tle_line1": "1 41105U 15074A   25342.06457569 -.00000116  00000+0  00000+0 0  9993",
        "tle_line2": "2 41105   6.2137  72.8831 0003895 202.1976 170.7351  1.00272095 36596"
      },
      "geometry": {
        "type": "Point",
        "coordinates": [
          26.369811879923294,
          -4.506762015743513
        ]
      }
    },
    {
      "type": "Feature",
      "properties": {
        "norad_id": 41752,
        "name": "INSAT-3DR",
        "group": "weather",
        "lat": 0.0538659293598922,
        "lon": 114.59848231568847,
        "alt_km": 35842.46708744098,
        "timestamp": "2025-12-08T21:31:04.318277+00:00",
        "meta_object_name": "INSAT-3DR",
        "meta_object_id": "2016-054A",
        "meta_epoch": "2025-12-08T13:57:27.711936",
        "meta_mean_motion": 1.00270195,
        "meta_eccentricity": 0.00145381,
        "meta_inclination": 0.0819,
        "meta_ra_of_asc_node": 86.8182,
        "meta_arg_of_pericenter": 183.2476,
        "meta_mean_anomaly": 90.8953,
        "meta_ephemeris_type": 0,
        "meta_classification_type": "U",
        "meta_norad_cat_id": 41752,
        "meta_element_set_no": 999,
        "meta_rev_at_epoch": 3390,
        "meta_bstar": 0,
        "meta_mean_motion_dot": -7.5e-07,
        "meta_mean_motion_ddot": 0,
        "tle_line1": "1 41752U 16054A   25342.58157074 -.00000075  00000+0  00000+0 0  9999",
        "tle_line2": "2 41752   0.0819  86.8182 0014538 183.2476  90.8953  1.00270195 33908"
      },
      "geometry": {
        "type": "Point",
        "coordinates": [
          114.59848231568847,
          0.0538659293598922
        ]
      }
    },
    {
      "type": "Feature",
      "properties": {
        "norad_id": 41836,
        "name": "HIMAWARI-9",
        "group": "weather",
        "lat": 0.009013224140734046,
        "lon": -178.58463415931226,
        "alt_km": 35785.324509512124,
        "timestamp": "2025-12-08T21:31:04.318289+00:00",
        "meta_object_name": "HIMAWARI-9",
        "meta_object_id": "2016-064A",
        "meta_epoch": "2025-12-08T14:16:25.895424",
        "meta_mean_motion": 1.00271357,
        "meta_eccentricity": 0.00012693,
        "meta_inclination": 0.0197,
        "meta_ra_of_asc_node": 65.4318,
        "meta_arg_of_pericenter": 196.2475,
        "meta_mean_anomaly": 170.7975,
        "meta_ephemeris_type": 0,
        "meta_classification_type": "U",
        "meta_norad_cat_id": 41836,
        "meta_element_set_no": 999,
        "meta_rev_at_epoch": 3329,
        "meta_bstar": 0,
        "meta_mean_motion_dot": -2.72e-06,
        "meta_mean_motion_ddot": 0,
        "tle_line1": "1 41836U 16064A   25342.59474416 -.00000272  00000+0  00000+0 0  9995",
        "tle_line2": "2 41836   0.0197  65.4318 0001269 196.2475 170.7975  1.00271357 33299"
      },
      "geometry": {
        "type": "Point",
        "coordinates": [
          -178.58463415931226,
          0.009013224140734046
        ]
      }
    }
  ]
}